STARLINK-34491          
1 64780U 25147AB  26068.74752896  .00030176  00000+0  10265-2 0  9996
2 64780  53.1592 242.2600 0000896  94.2011 265.9092 15.30208811 38764
KUIPER-00175            
1 67135U 25301C   26068.97960463  .00019968  00000+0  66732-3 0  9998
2 67135  51.8781  63.6978 0002279  50.5695 309.5490 15.30996371 13854
