[{"OBJECT_NAME":"STARLINK-34491","OBJECT_ID":"2025-147AB","EPOCH":"2026-03-09T17:56:26.502144","MEAN_MOTION":15.30208811,"ECCENTRICITY":8.96e-5,"INCLINATION":53.1592,"RA_OF_ASC_NODE":242.26,"ARG_OF_PERICENTER":94.2011,"MEAN_ANOMALY":265.9092,"EPHEMERIS_TYPE":0,"CLASSIFICATION_TYPE":"U","NORAD_CAT_ID":64780,"ELEMENT_SET_NO":999,"REV_AT_EPOCH":3876,"BSTAR":0.0010265496,"MEAN_MOTION_DOT":0.00030176,"MEAN_MOTION_DDOT":0},{"OBJECT_NAME":"KUIPER-00175","OBJECT_ID":"2025-301C","EPOCH":"2026-03-09T23:30:37.840032","MEAN_MOTION":15.30996371,"ECCENTRICITY":0.00022792,"INCLINATION":51.8781,"RA_OF_ASC_NODE":63.6978,"ARG_OF_PERICENTER":50.5695,"MEAN_ANOMALY":309.549,"EPHEMERIS_TYPE":0,"CLASSIFICATION_TYPE":"U","NORAD_CAT_ID":67135,"ELEMENT_SET_NO":999,"REV_AT_EPOCH":1385,"BSTAR":0.00066732304,"MEAN_MOTION_DOT":0.00019968,"MEAN_MOTION_DDOT":0}]
